{
  "type": "FeatureCollection",
  "features": [
    {
      "type": "Feature",
      "properties": {
        "norad_id": 65731,
        "name": "1998-067XK",
        "group": "stations",
        "lat": -11.914656219021806,
        "lon": 121.49411041094105,
        "alt_km": 372.57439959251406,
        "timestamp": "2025-12-13T22:39:28.467847+00:00",
        "meta_object_name": "1998-067XK",
        "meta_object_id": "1998-067XK",
        "meta_epoch": "2025-12-13T02:48:43.499232",
        "meta_mean_motion": 15.65831493,
        "meta_eccentricity": 0.00050246,
        "meta_inclination": 51.6274,
        "meta_ra_of_asc_node": 135.3174,
        "meta_arg_of_pericenter": 248.4122,
        "meta_mean_anomaly": 111.6339,
        "meta_ephemeris_type": 0,
        "meta_classification_type": "U",
        "meta_norad_cat_id": 65731,
        "meta_element_set_no": 999,
        "meta_rev_at_epoch": 1320,
        "meta_bstar": 0.0012217358,
        "meta_mean_motion_dot": 0.00128039,
        "meta_mean_motion_ddot": 0,
        "tle_line1": "1 65731U 98067XK  25347.11717013  .00128039  00000+0  12217-2 0  9991",
        "tle_line2": "2 65731  51.6274 135.3174 0005024 248.4122 111.6339 15.65831493 13202"
      },
      "geometry": {
        "type": "Point",
        "coordinates": [
          121.49411041094105,
          -11.914656219021806
        ]
      }
    },
    {
      "type": "Feature",
      "properties": {
        "norad_id": 65732,
        "name": "RSP-03",
        "group": "stations",
        "lat": -23.22224908086185,
        "lon": 110.5112002103685,
        "alt_km": 363.9967969051695,
        "timestamp": "2025-12-13T22:39:28.467858+00:00",
        "meta_object_name": "RSP-03",
        "meta_object_id": "1998-067XL",
        "meta_epoch": "2025-12-12T19:16:04.645920",
        "meta_mean_motion": 15.68628297,
        "meta_eccentricity": 0.00057622,
        "meta_inclination": 51.6253,
        "meta_ra_of_asc_node": 136.2083,
        "meta_arg_of_pericenter": 249.7501,
        "meta_mean_anomaly": 110.2876,
        "meta_ephemeris_type": 0,
        "meta_classification_type": "U",
        "meta_norad_cat_id": 65732,
        "meta_element_set_no": 999,
        "meta_rev_at_epoch": 1317,
        "meta_bstar": 0.0013717805,
        "meta_mean_motion_dot": 0.00161855,
        "meta_mean_motion_ddot": 0,
        "tle_line1": "1 65732U 98067XL  25346.80283155  .00161855  00000+0  13718-2 0  9992",
        "tle_line2": "2 65732  51.6253 136.2083 0005762 249.7501 110.2876 15.68628297 13179"
      },
      "geometry": {
        "type": "Point",
        "coordinates": [
          110.5112002103685,
          -23.22224908086185
        ]
      }
    },
    {
      "type": "Feature",
      "properties": {
        "norad_id": 65733,
        "name": "GHS-01",
        "group": "stations",
        "lat": -51.36005216363736,
        "lon": 46.6088284750695,
        "alt_km": 343.3021859182145,
        "timestamp": "2025-12-13T22:39:28.467870+00:00",
        "meta_object_name": "GHS-01",
        "meta_object_id": "1998-067XM",
        "meta_epoch": "2025-12-12T16:33:54.337536",
        "meta_mean_motion": 15.74787819,
        "meta_eccentricity": 0.00071608,
        "meta_inclination": 51.6272,
        "meta_ra_of_asc_node": 135.4559,
        "meta_arg_of_pericenter": 280.4692,
        "meta_mean_anomaly": 79.55,
        "meta_ephemeris_type": 0,
        "meta_classification_type": "U",
        "meta_norad_cat_id": 65733,
        "meta_element_set_no": 999,
        "meta_rev_at_epoch": 1317,
        "meta_bstar": 0.0017046622,
        "meta_mean_motion_dot": 0.00264493,
        "meta_mean_motion_ddot": 0,
        "tle_line1": "1 65733U 98067XM  25346.69021224  .00264493  00000+0  17047-2 0  9998",
        "tle_line2": "2 65733  51.6272 135.4559 0007160 280.4692  79.5500 15.74787819 13171"
      },
      "geometry": {
        "type": "Point",
        "coordinates": [
          46.6088284750695,
          -51.36005216363736
        ]
      }
    },
    {
      "type": "Feature",
      "properties": {
        "norad_id": 65941,
        "name": "YOTSUBA-KULOVER",
        "group": "stations",
        "lat": 50.130867996380104,
        "lon": -154.51305721286607,
        "alt_km": 382.64960106822673,
        "timestamp": "2025-12-13T22:39:28.467881+00:00",
        "meta_object_name": "YOTSUBA-KULOVER",
        "meta_object_id": "1998-067XN",
        "meta_epoch": "2025-12-12T17:06:14.736384",
        "meta_mean_motion": 15.59447843,
        "meta_eccentricity": 0.00014047,
        "meta_inclination": 51.6283,
        "meta_ra_of_asc_node": 140.1142,
        "meta_arg_of_pericenter": 246.8378,
        "meta_mean_anomaly": 113.2466,
        "meta_ephemeris_type": 0,
        "meta_classification_type": "U",
        "meta_norad_cat_id": 65941,
        "meta_element_set_no": 999,
        "meta_rev_at_epoch": 985,
        "meta_bstar": 0.0010939393,
        "meta_mean_motion_dot": 0.0008876,
        "meta_mean_motion_ddot": 0,
        "tle_line1": "1 65941U 98067XN  25346.71267056  .00088760  00000+0  10939-2 0  9991",
        "tle_line2": "2 65941  51.6283 140.1142 0001404 246.8378 113.2466 15.59447843  9857"
      },
      "geometry": {
        "type": "Point",
        "coordinates": [
          -154.51305721286607,
          50.130867996380104
        ]
      }
    },
    {
      "type": "Feature",
      "properties": {
        "norad_id": 65942,
        "name": "BOTAN",
        "group": "stations",
        "lat": 43.76982369095647,
        "lon": -177.41489405056865,
        "alt_km": 374.48442914956195,
        "timestamp": "2025-12-13T22:39:28.467893+00:00",
        "meta_object_name": "BOTAN",
        "meta_object_id": "1998-067XP",
        "meta_epoch": "2025-12-12T20:18:31.406976",
        "meta_mean_motion": 15.62906067,
        "meta_eccentricity": 0.00031064,
        "meta_inclination": 51.6286,
        "meta_ra_of_asc_node": 138.7562,
        "meta_arg_of_pericenter": 238.0921,
        "meta_mean_anomaly": 121.9771,
        "meta_ephemeris_type": 0,
        "meta_classification_type": "U",
        "meta_norad_cat_id": 65942,
        "meta_element_set_no": 999,
        "meta_rev_at_epoch": 988,
        "meta_bstar": 0.0014970071,
        "meta_mean_motion_dot": 0.00139962,
        "meta_mean_motion_ddot": 0,
        "tle_line1": "1 65942U 98067XP  25346.84619684  .00139962  00000+0  14970-2 0  9994",
        "tle_line2": "2 65942  51.6286 138.7562 0003106 238.0921 121.9771 15.62906067  9888"
      },
      "geometry": {
        "type": "Point",
        "coordinates": [
          -177.41489405056865,
          43.76982369095647
        ]
      }
    },
    {
      "type": "Feature",
      "properties": {
        "norad_id": 65943,
        "name": "E-KAGAKU-1",
        "group": "stations",
        "lat": 50.2550179602998,
        "lon": -153.75925800743244,
        "alt_km": 383.56758649426956,
        "timestamp": "2025-12-13T22:39:28.467904+00:00",
        "meta_object_name": "E-KAGAKU-1",
        "meta_object_id": "1998-067XQ",
        "meta_epoch": "2025-12-10T06:39:08.237952",
        "meta_mean_motion": 15.5900432,
        "meta_eccentricity": 0.00052507,
        "meta_inclination": 51.6298,
        "meta_ra_of_asc_node": 152.3458,
        "meta_arg_of_pericenter": 191.2269,
        "meta_mean_anomaly": 168.8608,
        "meta_ephemeris_type": 0,
        "meta_classification_type": "U",
        "meta_norad_cat_id": 65943,
        "meta_element_set_no": 999,
        "meta_rev_at_epoch": 947,
        "meta_bstar": 0.0012588803,
        "meta_mean_motion_dot": 0.00100705,
        "meta_mean_motion_ddot": 0,
        "tle_line1": "1 65943U 98067XQ  25344.27717868  .00100705  00000+0  12589-2 0  9990",
        "tle_line2": "2 65943  51.6298 152.3458 0005250 191.2269 168.8608 15.59004320  9476"
      },
      "geometry": {
        "type": "Point",
        "coordinates": [
          -153.75925800743244,
          50.2550179602998
        ]
      }
    },
    {
      "type": "Feature",
      "properties": {
        "norad_id": 66052,
        "name": "HRC MONOBLOCK CAMERA",
        "group": "stations",
        "lat": 29.380649426191454,
        "lon": 161.99485524066156,
        "alt_km": 402.44508342299923,
        "timestamp": "2025-12-13T22:39:28.467915+00:00",
        "meta_object_name": "HRC MONOBLOCK CAMERA",
        "meta_object_id": "1998-067XR",
        "meta_epoch": "2025-12-13T07:03:37.221984",
        "meta_mean_motion": 15.54192892,
        "meta_eccentricity": 0.00031753,
        "meta_inclination": 51.6292,
        "meta_ra_of_asc_node": 138.7434,
        "meta_arg_of_pericenter": 186.7911,
        "meta_mean_anomaly": 173.3037,
        "meta_ephemeris_type": 0,
        "meta_classification_type": "U",
        "meta_norad_cat_id": 66052,
        "meta_element_set_no": 999,
        "meta_rev_at_epoch": 892,
        "meta_bstar": 0.00087487655,
        "meta_mean_motion_dot": 0.00058002,
        "meta_mean_motion_ddot": 0,
        "tle_line1": "1 66052U 98067XR  25347.29418081  .00058002  00000+0  87488-3 0  9995",
        "tle_line2": "2 66052  51.6292 138.7434 0003175 186.7911 173.3037 15.54192892  8924"
      },
      "geometry": {
        "type": "Point",
        "coordinates": [
          161.99485524066156,
          29.380649426191454
        ]
      }
    }
  ]
}